{"type": "FeatureCollection", "features": [ {"type": "Feature", "properties": {"norad_id": 44476, "name": "INTELSAT 39 (IS-39)", "group": "intelsat", "lat": -0.014927139942333755, "lon": -58.429828450595885, "alt_km": 35788.884741460635, "timestamp": "2025-12-22T09:53:37.074332+00:00", "meta": {"OBJECT_NAME": "INTELSAT 39 (IS-39)", "OBJECT_ID": "2019-049B", "EPOCH": "2025-12-21T20:34:53.577120", "MEAN_MOTION": 1.00273614, "ECCENTRICITY": 8.24e-05, "INCLINATION": 0.0088, "RA_OF_ASC_NODE": 313.2176, "ARG_OF_PERICENTER": 184.0744, "MEAN_ANOMALY": 324.0513, "EPHEMERIS_TYPE": 0, "CLASSIFICATION_TYPE": "U", "NORAD_CAT_ID": 44476, "ELEMENT_SET_NO": 999, "REV_AT_EPOCH": 2335, "BSTAR": 0, "MEAN_MOTION_DOT": 5.5e-07, "MEAN_MOTION_DDOT": 0}, "tle": {"line1": "1 44476U 19049B   25355.85756455  .00000055  00000+0  00000+0 0  9991", "line2": "2 44476   0.0088 313.2176 0000824 184.0744 324.0513  1.00273614 23353"}}, "geometry": {"type": "Point", "coordinates": [-58.429828450595885, -0.014927139942333755]}}, {"type": "Feature", "properties": {"norad_id": 46114, "name": "GALAXY 30 (G-30)", "group": "intelsat", "lat": 0.04170090184228779, "lon": 114.61019428318797, "alt_km": 35793.98990202392, "timestamp": "2025-12-22T09:53:37.074343+00:00", "meta": {"OBJECT_NAME": "GALAXY 30 (G-30)", "OBJECT_ID": "2020-056C", "EPOCH": "2025-12-22T02:17:55.557888", "MEAN_MOTION": 1.00270018, "ECCENTRICITY": 0.0001987, "INCLINATION": 0.0184, "RA_OF_ASC_NODE": 4.1133, "ARG_OF_PERICENTER": 262.4683, "MEAN_ANOMALY": 93.8138, "EPHEMERIS_TYPE": 0, "CLASSIFICATION_TYPE": "U", "NORAD_CAT_ID": 46114, "ELEMENT_SET_NO": 999, "REV_AT_EPOCH": 1951, "BSTAR": 0, "MEAN_MOTION_DOT": 5.9e-07, "MEAN_MOTION_DDOT": 0}, "tle": {"line1": "1 46114U 20056C   25356.09578192  .00000059  00000+0  00000+0 0  9993", "line2": "2 46114   0.0184   4.1133 0001987 262.4683  93.8138  1.00270018 19516"}}, "geometry": {"type": "Point", "coordinates": [114.61019428318797, 0.04170090184228779]}}, {"type": "Feature", "properties": {"norad_id": 54026, "name": "GALAXY 33 (G-33)", "group": "intelsat", "lat": 0.02205968585693988, "lon": 106.60959675931761, "alt_km": 35792.33988855159, "timestamp": "2025-12-22T09:53:37.074355+00:00", "meta": {"OBJECT_NAME": "GALAXY 33 (G-33)", "OBJECT_ID": "2022-128A", "EPOCH": "2025-12-22T02:41:31.919136", "MEAN_MOTION": 1.00271378, "ECCENTRICITY": 0.0001588, "INCLINATION": 0.0192, "RA_OF_ASC_NODE": 304.2045, "ARG_OF_PERICENTER": 318.8341, "MEAN_ANOMALY": 95.2689, "EPHEMERIS_TYPE": 0, "CLASSIFICATION_TYPE": "U", "NORAD_CAT_ID": 54026, "ELEMENT_SET_NO": 999, "REV_AT_EPOCH": 1196, "BSTAR": 0, "MEAN_MOTION_DOT": 1.01e-06, "MEAN_MOTION_DDOT": 0}, "tle": {"line1": "1 54026U 22128A   25356.11217499  .00000101  00000+0  00000+0 0  9997", "line2": "2 54026   0.0192 304.2045 0001588 318.8341  95.2689  1.00271378 11964"}}, "geometry": {"type": "Point", "coordinates": [106.60959675931761, 0.02205968585693988]}}, {"type": "Feature", "properties": {"norad_id": 54027, "name": "GALAXY 34 (G-34)", "group": "intelsat", "lat": 0.039310385339890515, "lon": 110.65275048610283, "alt_km": 35793.81172504307, "timestamp": "2025-12-22T09:53:37.074366+00:00", "meta": {"OBJECT_NAME": "GALAXY 34 (G-34)", "OBJECT_ID": "2022-128B", "EPOCH": "2025-12-22T03:23:26.660256", "MEAN_MOTION": 1.0026922, "ECCENTRICITY": 0.0001858, "INCLINATION": 0.0241, "RA_OF_ASC_NODE": 337.9019, "ARG_OF_PERICENTER": 285.9867, "MEAN_ANOMALY": 108.9733, "EPHEMERIS_TYPE": 0, "CLASSIFICATION_TYPE": "U", "NORAD_CAT_ID": 54027, "ELEMENT_SET_NO": 999, "REV_AT_EPOCH": 1213, "BSTAR": 0, "MEAN_MOTION_DOT": 0, "MEAN_MOTION_DDOT": 0}, "tle": {"line1": "1 54027U 22128B   25356.14128079  .00000000  00000+0  00000+0 0  9994", "line2": "2 54027   0.0241 337.9019 0001858 285.9867 108.9733  1.00269220 12136"}}, "geometry": {"type": "Point", "coordinates": [110.65275048610283, 0.039310385339890515]}}, {"type": "Feature", "properties": {"norad_id": 54243, "name": "GALAXY 31 (G-31)", "group": "intelsat", "lat": 0.007181462231751879, "lon": 118.60666506005074, "alt_km": 35792.02716484786, "timestamp": "2025-12-22T09:53:37.074378+00:00", "meta": {"OBJECT_NAME": "GALAXY 31 (G-31)", "OBJECT_ID": "2022-153A", "EPOCH": "2025-12-22T04:29:32.127360", "MEAN_MOTION": 1.00271056, "ECCENTRICITY": 0.0001416, "INCLINATION": 0.0308, "RA_OF_ASC_NODE": 249.2071, "ARG_OF_PERICENTER": 32.967, "MEAN_ANOMALY": 115.2028, "EPHEMERIS_TYPE": 0, "CLASSIFICATION_TYPE": "U", "NORAD_CAT_ID": 54243, "ELEMENT_SET_NO": 999, "REV_AT_EPOCH": 535, "BSTAR": 0, "MEAN_MOTION_DOT": 3.5e-07, "MEAN_MOTION_DDOT": 0}, "tle": {"line1": "1 54243U 22153A   25356.18717740  .00000035  00000+0  00000+0 0  9993", "line2": "2 54243   0.0308 249.2071 0001416  32.9670 115.2028  1.00271056  5359"}}, "geometry": {"type": "Point", "coordinates": [118.60666506005074, 0.007181462231751879]}}, {"type": "Feature", "properties": {"norad_id": 54244, "name": "GALAXY 32 (G-32)", "group": "intelsat", "lat": 0.0173144439545766, "lon": 148.60780065851927, "alt_km": 35794.76188961605, "timestamp": "2025-12-22T09:53:37.074389+00:00", "meta": {"OBJECT_NAME": "GALAXY 32 (G-32)", "OBJECT_ID": "2022-153B", "EPOCH": "2025-12-22T02:27:39.626208", "MEAN_MOTION": 1.00270271, "ECCENTRICITY": 0.0001979, "INCLINATION": 0.0106, "RA_OF_ASC_NODE": 352.1594, "ARG_OF_PERICENTER": 327.8502, "MEAN_ANOMALY": 76.8163, "EPHEMERIS_TYPE": 0, "CLASSIFICATION_TYPE": "U", "NORAD_CAT_ID": 54244, "ELEMENT_SET_NO": 999, "REV_AT_EPOCH": 1136, "BSTAR": 0, "MEAN_MOTION_DOT": -1.52e-06, "MEAN_MOTION_DDOT": 0}, "tle": {"line1": "1 54244U 22153B   25356.10254197 -.00000152  00000+0  00000+0 0  9999", "line2": "2 54244   0.0106 352.1594 0001979 327.8502  76.8163  1.00270271 11362"}}, "geometry": {"type": "Point", "coordinates": [148.60780065851927, 0.0173144439545766]}}, {"type": "Feature", "properties": {"norad_id": 54741, "name": "GALAXY 35 (G-35)", "group": "intelsat", "lat": 0.024580262345533323, "lon": 146.50314371221378, "alt_km": 35791.64409491296, "timestamp": "2025-12-22T09:53:37.074400+00:00", "meta": {"OBJECT_NAME": "GALAXY 35 (G-35)", "OBJECT_ID": "2022-170A", "EPOCH": "2025-12-22T00:44:20.304384", "MEAN_MOTION": 1.00271855, "ECCENTRICITY": 0.000217, "INCLINATION": 0.017, "RA_OF_ASC_NODE": 78.0068, "ARG_OF_PERICENTER": 195.7585, "MEAN_ANOMALY": 95.0692, "EPHEMERIS_TYPE": 0, "CLASSIFICATION_TYPE": "U", "NORAD_CAT_ID": 54741, "ELEMENT_SET_NO": 999, "REV_AT_EPOCH": 1111, "BSTAR": 0, "MEAN_MOTION_DOT": -1.4e-06, "MEAN_MOTION_DDOT": 0}, "tle": {"line1": "1 54741U 22170A   25356.03079056 -.00000140  00000+0  00000+0 0  9998", "line2": "2 54741   0.0170  78.0068 0002170 195.7585  95.0692  1.00271855 11114"}}, "geometry": {"type": "Point", "coordinates": [146.50314371221378, 0.024580262345533323]}}, {"type": "Feature", "properties": {"norad_id": 54742, "name": "GALAXY 36 (G-36)", "group": "intelsat", "lat": 0.030634558603465423, "lon": 150.60810817041641, "alt_km": 35788.677636813816, "timestamp": "2025-12-22T09:53:37.074412+00:00", "meta": {"OBJECT_NAME": "GALAXY 36 (G-36)", "OBJECT_ID": "2022-170B", "EPOCH": "2025-12-22T02:28:09.576768", "MEAN_MOTION": 1.00268826, "ECCENTRICITY": 4.36e-05, "INCLINATION": 0.0156, "RA_OF_ASC_NODE": 40.8472, "ARG_OF_PERICENTER": 306.8829, "MEAN_ANOMALY": 51.2178, "EPHEMERIS_TYPE": 0, "CLASSIFICATION_TYPE": "U", "NORAD_CAT_ID": 54742, "ELEMENT_SET_NO": 999, "REV_AT_EPOCH": 1099, "BSTAR": 0, "MEAN_MOTION_DOT": 0, "MEAN_MOTION_DDOT": 0}, "tle": {"line1": "1 54742U 22170B   25356.10288862  .00000000  00000+0  00000+0 0  9998", "line2": "2 54742   0.0156  40.8472 0000436 306.8829  51.2178  1.00268826 10996"}}, "geometry": {"type": "Point", "coordinates": [150.60810817041641, 0.030634558603465423]}}, {"type": "Feature", "properties": {"norad_id": 57493, "name": "GALAXY 37 (G-37)", "group": "intelsat", "lat": 0.032983813098506044, "lon": 112.59954753673632, "alt_km": 35794.088893411754, "timestamp": "2025-12-22T09:53:37.074423+00:00", "meta": {"OBJECT_NAME": "GALAXY 37 (G-37)", "OBJECT_ID": "2023-112A", "EPOCH": "2025-12-22T02:44:32.462304", "MEAN_MOTION": 1.00271223, "ECCENTRICITY": 0.0001949, "INCLINATION": 0.0089, "RA_OF_ASC_NODE": 28.4297, "ARG_OF_PERICENTER": 246.5962, "MEAN_ANOMALY": 90.0255, "EPHEMERIS_TYPE": 0, "CLASSIFICATION_TYPE": "U", "NORAD_CAT_ID": 57493, "ELEMENT_SET_NO": 999, "REV_AT_EPOCH": 876, "BSTAR": 0, "MEAN_MOTION_DOT": 7e-07, "MEAN_MOTION_DDOT": 0}, "tle": {"line1": "1 57493U 23112A   25356.11426461  .00000070  00000+0  00000+0 0  9998", "line2": "2 57493   0.0089  28.4297 0001949 246.5962  90.0255  1.00271223  8766"}}, "geometry": {"type": "Point", "coordinates": [112.59954753673632, 0.032983813098506044]}}]}